{
    "links": {
        "self": "http://www.neowsapp.com/rest/v1/neo/3879291?api_key=iIulBulltgU6a56xZRHN4H3l9WmuAYTsLGpBGhQ2"
    },
    "id": "3879291",
    "neo_reference_id": "3879291",
    "name": "(2019 UQ2)",
    "designation": "2019 UQ2",
    "nasa_jpl_url": "http://ssd.jpl.nasa.gov/sbdb.cgi?sstr=3879291",
    "absolute_magnitude_h": 24.4,
    "estimated_diameter": {
        "kilometers": {
            "estimated_diameter_min": 0.0350392641,
            "estimated_diameter_max": 0.0783501764
        },
        "meters": {
            "estimated_diameter_min": 35.0392641108,
            "estimated_diameter_max": 78.3501764334
        },
        "miles": {
            "estimated_diameter_min": 0.0217723826,
            "estimated_diameter_max": 0.0486845275
        },
        "feet": {
            "estimated_diameter_min": 114.9582192654,
            "estimated_diameter_max": 257.0543928497
        }
    },
    "is_potentially_hazardous_asteroid": false,
    "close_approach_data": [
        {
            "close_approach_date": "2019-10-20",
            "close_approach_date_full": "2019-Oct-20 01:07",
            "epoch_date_close_approach": 1571533620000,
            "relative_velocity": {
                "kilometers_per_second": "11.1502182384",
                "kilometers_per_hour": "40140.7856581424",
                "miles_per_hour": "24941.9231774163"
            },
            "miss_distance": {
                "astronomical": "0.1024041455",
                "lunar": "39.8352125995",
                "kilometers": "15319442.045970085",
                "miles": "9519059.882693773"
            },
            "orbiting_body": "Earth"
        }
    ],
    "orbital_data": {
        "orbit_id": "3",
        "orbit_determination_date": "2019-10-31 07:11:22",
        "first_observation_date": "2019-10-20",
        "last_observation_date": "2019-10-31",
        "data_arc_in_days": 11,
        "observations_used": 31,
        "orbit_uncertainty": "8",
        "minimum_orbit_intersection": ".097394",
        "jupiter_tisserand_invariant": "3.058",
        "epoch_osculation": "2458777.5",
        "eccentricity": ".5909260199907965",
        "semi_major_axis": "2.667550521991642",
        "inclination": "16.50543507345625",
        "ascending_node_longitude": "22.07534955250154",
        "orbital_period": "1591.356224149804",
        "perihelion_distance": "1.091225508906749",
        "perihelion_argument": "7.918318965620873",
        "aphelion_distance": "4.243875535076534",
        "perihelion_time": "2458781.554515208719",
        "mean_anomaly": "359.0827789196484",
        "mean_motion": ".2262221333833241",
        "equinox": "J2000",
        "orbit_class": {
            "orbit_class_type": "AMO",
            "orbit_class_description": "Near-Earth asteroid orbits similar to that of 1221 Amor",
            "orbit_class_range": "1.017 AU < q (perihelion) < 1.3 AU"
        }
    },
    "is_sentry_object": false
}